TITAN 4B R/B            
1 26474U 00047B   22357.44054551  .00002131  00000+0  18639-3 0  9997
2 26474  67.9952  64.3180 0059462 267.2448  92.1889 14.97524372216734
ENVISAT                 
1 27386U 02009A   22357.43810302  .00000184  00000+0  74321-4 0  9990
2 27386  98.2077 329.9136 0001240  83.3895  87.6502 14.38202099 90620
IDEFIX & ARIANE 42P R/B 
1 27422U 02021B   22357.57842124  .00000228  00000+0  10592-3 0  9995
2 27422  98.4727 298.0920 0013020  42.9694 317.2503 14.29507856 76478
AQUA                    
1 27424U 02022A   22357.59248963  .00000748  00000+0  17465-3 0  9994
2 27424  98.2689 297.8879 0001497  52.6753 120.3929 14.57529879 97731
CZ-4B R/B               
1 27432U 02024C   22357.35942646  .00000040  00000+0  44358-4 0  9995
2 27432  99.0449  24.9872 0051334 103.1783 268.2317 14.14167758 63525
MIDORI II (ADEOS-II)    
1 27597U 02056A   22357.56395307  .00000227  00000+0  10974-3 0  9994
2 27597  98.6294 298.7848 0001352 128.3048 231.8255 14.27704247 42957
H-2A R/B                
1 27601U 02056E   22357.25595325  .00000284  00000+0  11689-3 0  9995
2 27601  98.1821 353.2155 0072989  58.5896 312.5743 14.32172959 46207
CZ-4B R/B               
1 28059U 03049C   22357.56279473  .00000264  00000+0  75028-4 0  9999
2 28059  98.5405 297.5079 0049214 208.5821 151.2674 14.52917965 16273
CZ-2C R/B               
1 28222U 04012C   22357.46766150  .00004782  00000+0  25919-3 0  9996
2 28222  97.7903 342.2160 0044593 123.1640  39.9740 15.14234123 24827
SL-16 R/B               
1 28353U 04021B   22357.48209974 -.00000266  00000+0 -11446-3 0  9994
2 28353  70.9991 171.8113 0004836 351.4024   8.7014 14.14286515957075
CZ-4B R/B               
1 28415U 04035C   22357.43427239  .00002820  00000+0  17684-3 0  9995
2 28415  97.4939  33.6579 0050832  92.1335 268.5716 15.09052771  2090
CZ-2C R/B               
1 28480U 04046B   22357.44904245  .00000241  00000+0  10599-3 0  9990
2 28480  98.0874 330.5007 0142121  22.8874 337.8559 14.25897511941377
ARIANE 5 R/B            
1 28499U 04049H   22357.62999550  .00001025  00000+0  13152-3 0  9995
2 28499  98.1163 116.3379 0090986 182.6124 187.9613 14.80701125972077
CZ-2D R/B               
1 28738U 05024B   22357.44308083  .00004221  00000+0  22773-3 0  9990
2 28738  97.3522 359.2194 0009475 238.0226 122.0086 15.15240912960351
SUZAKU (ASTRO-EII)      
1 28773U 05025A   22357.56035054  .00007414  00000+0  29811-3 0  9995
2 28773  31.3780 143.5868 0004054 124.8296 235.2735 15.23538451963867
ALOS (DAICHI)           
1 28931U 06002A   22357.30719407  .00001141  00000+0  22883-3 0  9993
2 28931  97.9620 315.3933 0002240  70.3707 289.7730 14.63508939902046
H-2A R/B                
1 28932U 06002B   22357.40991972  .00002907  00000+0  25734-3 0  9993
2 28932  98.2674  50.0669 0084898 190.9350 169.0026 14.94425483918255
AKARI (ASTRO-F)         
1 28939U 06005A   22357.54237556  .00053635  00000+0  62659-3 0  9990
2 28939  98.1864  97.0298 0050259 316.4080  43.3207 15.59859630922404
CZ-4B R/B               
1 29093U 06015B   22357.58006199  .00069564  00000+0  47576-3 0  9993
2 29093  97.5678 231.4930 0025292 194.8389 165.2135 15.74126377929131
RESURS-DK 1             
1 29228U 06021A   22357.50171027  .00001481  00000+0  11483-3 0  9997
2 29228  69.9353   7.0565 0002703 178.7009 181.4159 15.03761370910795
GENESIS 1               
1 29252U 06029A   22357.49620333  .00006530  00000+0  28000-3 0  9992
2 29252  64.5193 169.5102 0046776 234.3486 125.3280 15.22641495907730
CZ-4B R/B               
1 29507U 06046C   22357.32610714  .00001771  00000+0  13543-3 0  9996
2 29507  97.7073  26.5337 0044062 318.0049  41.7800 15.02496313883222
CZ-2C R/B               
1 31114U 07010B   22357.39742034  .00000090  00000+0  60149-4 0  9991
2 31114  98.2547 157.6241 0060759 106.6916 254.0942 14.19479695813361
COSMO-SKYMED 1          
1 31598U 07023A   22357.49894250  .00000728  00000+0  98027-4 0  9994
2 31598  97.8860 178.4785 0001392  87.8649 272.2679 14.82154205840967
GENESIS 2               
1 31789U 07028A   22357.31537372  .00005659  00000+0  24789-3 0  9992
2 31789  64.4942 213.7834 0059617 285.7820  73.6736 15.21485824854613
COSMOS 2428             
1 31792U 07029A   22357.41831765 -.00000226  00000+0 -96358-4 0  9990
2 31792  70.9479 143.5564 0007453 134.2253 225.9481 14.12590738798530
SL-16 R/B               
1 31793U 07029B   22357.41709744 -.00000292  00000+0 -12727-3 0  9992
2 31793  70.9757 115.8871 0002850 278.4542 139.0286 14.14498665799583
KORONAS-FOTON           
1 33504U 09003A   22357.35916162  .00003496  00000+0  16853-3 0  9996
2 33504  82.4407  27.3442 0017193 340.4356  19.6216 15.18271302766611
CZ-2C R/B               
1 37731U 11030B   22357.43527281  .00000736  00000+0  11286-3 0  9993
2 37731  97.6927 334.5270 0058252 194.8734 283.0096 14.75352415616913
H-2A R/B                
1 38341U 12025E   22357.35382859  .00001380  00000+0  16430-3 0  9999
2 38341  98.4790 224.9624 0054609 157.6822 202.6785 14.85174674573688
CUSAT 2 & FALCON 9 R/B  
1 39271U 13055G   22357.39575352  .00022858  00000+0  46540-3 0  9990
2 39271  80.9542 345.8068 0491450 252.3698 102.3280 14.71943205484473
SHIJIAN-16 (SJ-16)      
1 39358U 13057A   22357.64958015  .00001597  00000+0  18317-3 0  9995
2 39358  74.9741 233.4192 0017214  65.6123 294.6867 14.86486815497108
CZ-2C R/B               
1 39364U 13059B   22357.39112796  .00012434  00000+0  35871-3 0  9990
2 39364  97.1342  44.4340 0039963  16.6094 343.6448 15.35014672509154
SL-4 R/B                
1 39679U 14021B   22357.54139896  .00003708  00000+0  18192-3 0  9997
2 39679  51.6126 154.5279 0160554 256.4511 101.8531 15.10103019477676
ALOS-2                  
1 39766U 14029A   22357.57397593 -.00000197  00000+0 -19568-4 0  9995
2 39766  97.9224  91.9970 0001422  96.2887 263.8491 14.79469962463597
CZ-2C R/B               
1 40306U 14071B   22357.40407308  .00243458  24478-4  70316-3 0  9996
2 40306  97.4254 343.4029 0006302  56.7695 303.4182 15.92995864456598
SL-27 R/B               
1 40354U 14084B   22357.55126700  .00011306  00000+0  22181-3 0  9995
2 40354  74.7376 281.0475 0030933   0.6765 359.4487 15.46826651449800
YAOGAN-29               
1 41038U 15069A   22357.46481193  .00000541  00000+0  76713-4 0  9999
2 41038  98.0615 358.6163 0001076 132.4495 227.6815 14.81023504382261
ASTRO-H (HITOMI)        
1 41337U 16012A   22357.56371918  .00001731  00000+0  12924-3 0  9999
2 41337  31.0055 298.8770 0011904 159.4819 200.6296 14.99961378375532
HXMT (HUIYAN)           
1 42758U 17034A   22357.61977905  .00004665  00000+0  28173-3 0  9998
2 42758  43.0180  27.1313 0009700  23.4267 122.2514 15.11702679304790
CZ-2C R/B               
1 43521U 18054D   22357.47103211  .00005297  00000+0  25972-3 0  9991
2 43521  35.1532 266.3248 0077426 317.2470  42.2240 15.14882270248340
AEOLUS                  
1 43600U 18066A   22357.49634590  .00117496  00000+0  45354-3 0  9994
2 43600  96.7303   0.4057 0008451  98.2216 262.0016 15.86919779251103
SAOCOM 1A               
1 43641U 18076A   22357.64235181  .00000515  00000+0  71200-4 0  9993
2 43641  97.8844 181.6406 0001343  84.6981 275.4384 14.82166139227750
H-2A R/B                
1 43682U 18084L   22357.44071849  .00004639  00000+0  31468-3 0  9996
2 43682  98.8974 349.2397 0053791   4.2774 355.8897 15.05885498227746
SAOCOM 1B               
1 46265U 20059A   22357.47095687 -.00001176  00000+0 -14124-3 0  9995
2 46265  97.8844 180.5325 0001412  81.2961 278.8125 14.82152610125128
CSS (TIANHE)            
1 48274U 21035A   22357.17715278  .00018343  00000+0  22590-3 0  9992
2 48274  41.4752 148.4058 0004079 197.4974 151.7162 15.59779644 94307
2022-019U               
1 51842U 22019U   22357.48679490  .00012758  00000+0  46087-3 0  9990
2 51842  97.5454  76.6876 0062907 244.3252 172.8872 15.26715363 45599
SZ-13 MODULE            
1 52260U 21092C   22357.48485145  .00085872  00000+0  35853-3 0  9993
2 52260  41.4758 120.9561 0011688  42.0803 318.0940 15.84508468 39197
CZ-2C R/B               
1 52794U 22058K   22357.38220873  .00002397  00000+0  13874-3 0  9992
2 52794  50.1734 356.3712 0100780 127.0949 233.9267 15.12198182 30861
